$$SOE
2460728.500000000, A.D. 2025-Feb-22 00:00:00.0000, 8.514955097914879E+07, 2.771164374061721E+08, 3.089958877097338E+06,
2460735.500000000, A.D. 2025-Mar-01 00:00:00.0000, 7.568305672792736E+07, 2.800832572686086E+08, 3.626254893033803E+06,
2460742.500000000, A.D. 2025-Mar-08 00:00:00.0000, 6.606615629920372E+07, 2.824935577559538E+08, 4.155340546057835E+06,
2460749.500000000, A.D. 2025-Mar-15 00:00:00.0000, 5.631796799589910E+07, 2.843425188944992E+08, 4.676162968266279E+06,
2460756.500000000, A.D. 2025-Mar-22 00:00:00.0000, 4.645759776833989E+07, 2.856250526192365E+08, 5.187663081247836E+06,
2460763.500000000, A.D. 2025-Mar-29 00:00:00.0000, 3.650424224780992E+07, 2.863357778605968E+08, 5.688769895160794E+06,
2460770.500000000, A.D. 2025-Apr-05 00:00:00.0000, 2.647729616946819E+07, 2.864689990211537E+08, 6.178394659703404E+06,
2460777.500000000, A.D. 2025-Apr-12 00:00:00.0000, 1.639646365939157E+07, 2.860186878913864E+08, 6.655424982110932E+06,
2460784.500000000, A.D. 2025-Apr-19 00:00:00.0000, 6.281874694378597E+06, 2.849784682107633E+08, 7.118718787071854E+06,
2460791.500000000, A.D. 2025-Apr-26 00:00:00.0000, -3.845791359572787E+06, 2.833416029213176E+08, 7.567098004178330E+06,
2460798.500000000, A.D. 2025-May-03 00:00:00.0000, -1.396517320631762E+07, 2.811009845654441E+08, 7.999341897344276E+06,
2460805.500000000, A.D. 2025-May-10 00:00:00.0000, -2.405408402037104E+07, 2.782491294858844E+08, 8.414179952737093E+06,
2460812.500000000, A.D. 2025-May-17 00:00:00.0000, -3.408935446049434E+07, 2.747781767021607E+08, 8.810284231118083E+06,
2460819.500000000, A.D. 2025-May-24 00:00:00.0000, -4.404665950979522E+07, 2.706798926571316E+08, 9.186261070068732E+06,
2460826.500000000, A.D. 2025-May-31 00:00:00.0000, -5.390032573026409E+07, 2.659456838164106E+08, 9.540642021712467E+06,
2460833.500000000, A.D. 2025-Jun-07 00:00:00.0000, -6.362311588611282E+07, 2.605666205479266E+08, 9.871874051843360E+06,
2460840.500000000, A.D. 2025-Jun-14 00:00:00.0000, -7.318598930802104E+07, 2.545334745493354E+08, 1.017830904481895E+07,
2460847.500000000, A.D. 2025-Jun-21 00:00:00.0000, -8.255783215265089E+07, 2.478367703715055E+08, 1.045819211113460E+07,
2460854.500000000, A.D. 2025-Jun-28 00:00:00.0000, -9.170514911583760E+07, 2.404668578239866E+08, 1.070964842991912E+07,
2460861.500000000, A.D. 2025-Jul-05 00:00:00.0000, -1.005917119877953E+08, 2.324140140675374E+08, 1.093066881659983E+07,
2460868.500000000, A.D. 2025-Jul-12 00:00:00.0000, -1.091781592026622E+08, 2.236685833076820E+08, 1.111909394460651E+07,
2460875.500000000, A.D. 2025-Jul-19 00:00:00.0000, -1.174215382304186E+08, 2.142211649904446E+08, 1.127259707025044E+07,
2460882.500000000, A.D. 2025-Jul-26 00:00:00.0000, -1.252747817407265E+08, 2.040628656070043E+08, 1.138866520272766E+07,
2460889.500000000, A.D. 2025-Aug-02 00:00:00.0000, -1.326861078752142E+08, 1.931856341966678E+08, 1.146457877271195E+07,
2460896.500000000, A.D. 2025-Aug-09 00:00:00.0000, -1.395983346770154E+08, 1.815827081304428E+08, 1.149739000800488E+07,
2460903.500000000, A.D. 2025-Aug-16 00:00:00.0000, -1.459480991695247E+08, 1.692492043947734E+08, 1.148390046625009E+07,
2460910.500000000, A.D. 2025-Aug-23 00:00:00.0000, -1.516649733879118E+08, 1.561829031896195E+08, 1.142063855985312E+07,
2460917.500000000, A.D. 2025-Aug-30 00:00:00.0000, -1.566704743573587E+08, 1.423852865100678E+08, 1.130383858618006E+07,
2460924.500000000, A.D. 2025-Sep-06 00:00:00.0000, -1.608769761034303E+08, 1.278629143769252E+08, 1.112942392590100E+07,
2460931.500000000, A.D. 2025-Sep-13 00:00:00.0000, -1.641865490684946E+08, 1.126292430161933E+08, 1.089299828870381E+07,
2460938.500000000, A.D. 2025-Sep-20 00:00:00.0000, -1.664897768486924E+08, 9.670702096024790E+07, 1.058985073470454E+07,
2460945.500000000, A.D. 2025-Sep-27 00:00:00.0000, -1.676646518140055E+08, 8.013143915989690E+07, 1.021498411673254E+07,
2460952.500000000, A.D. 2025-Oct-04 00:00:00.0000, -1.675757348580906E+08, 6.295424434842449E+07, 9.763181492637705E+06,
2460959.500000000, A.D. 2025-Oct-11 00:00:00.0000, -1.660738897045991E+08, 4.524904833516481E+07, 9.229131579534335E+06,
2460966.500000000, A.D. 2025-Oct-18 00:00:00.0000, -1.629970933859831E+08, 2.711805616726895E+07, 8.607643354146175E+06,
2460973.500000000, A.D. 2025-Oct-25 00:00:00.0000, -1.581730987062502E+08, 8.700343323989658E+06, 7.893990808627218E+06,
2460980.500000000, A.D. 2025-Nov-01 00:00:00.0000, -1.514250802720021E+08, -9.818447202311860E+06, 7.084439376742235E+06,
2460987.500000000, A.D. 2025-Nov-08 00:00:00.0000, -1.425817780197982E+08, -2.819567171422849E+07, 6.177009630025304E+06,
2460994.500000000, A.D. 2025-Nov-15 00:00:00.0000, -1.314938823437912E+08, -4.612220667702530E+07, 5.172518728067124E+06,
2461001.500000000, A.D. 2025-Nov-22 00:00:00.0000, -1.180580850669194E+08, -6.321715885440090E+07, 4.075884216088604E+06,
2461008.500000000, A.D. 2025-Nov-29 00:00:00.0000, -1.022486918261014E+08, -7.903185033392900E+07, 2.897552428358492E+06,
2461015.500000000, A.D. 2025-Dec-06 00:00:00.0000, -8.415327142330065E+07, -9.306935876417527E+07, 1.654717084205788E+06,
2461022.500000000, A.D. 2025-Dec-13 00:00:00.0000, -6.400363396815249E+07, -1.048244905727444E+08, 3.717789599579126E+05,
2461029.500000000, A.D. 2025-Dec-20 00:00:00.0000, -4.218875965436991E+07, -1.138429636755934E+08, -9.205699181860462E+05,
2461036.500000000, A.D. 2025-Dec-27 00:00:00.0000, -1.923683073987908E+07, -1.197882052788978E+08, -2.187958296343938E+06,
2461043.500000000, A.D. 2026-Jan-03 00:00:00.0000, 4.236966464353873E+06, -1.224951363214094E+08, -3.396268075310722E+06,
2461050.500000000, A.D. 2026-Jan-10 00:00:00.0000, 2.760467458749333E+07, -1.219910335684468E+08, -4.515776252627537E+06,
2461057.500000000, A.D. 2026-Jan-17 00:00:00.0000, 5.029857281966262E+07, -1.184766414649980E+08, -5.524199882220380E+06,
2461064.500000000, A.D. 2026-Jan-24 00:00:00.0000, 7.186177231676637E+07, -1.122778002666181E+08, -6.407885830691598E+06,
2461071.500000000, A.D. 2026-Jan-31 00:00:00.0000, 9.196799265138978E+07, -1.037871049578757E+08, -7.161248564907350E+06,
2461078.500000000, A.D. 2026-Feb-07 00:00:00.0000, 1.104153193555096E+08, -9.341265833942357E+07, -7.785133122904126E+06,
2461085.500000000, A.D. 2026-Feb-14 00:00:00.0000, 1.271049673611995E+08, -8.154227431443697E+07, -8.284854061874755E+06,
2461092.500000000, A.D. 2026-Feb-21 00:00:00.0000, 1.420153586838036E+08, -6.852355959651889E+07, -8.668420619252644E+06,
2461099.500000000, A.D. 2026-Feb-28 00:00:00.0000, 1.551780210156958E+08, -5.465620861934446E+07, -8.945167927869227E+06,
2461106.500000000, A.D. 2026-Mar-07 00:00:00.0000, 1.666581214943835E+08, -4.019204137463598E+07, -9.124814393475361E+06,
2461113.500000000, A.D. 2026-Mar-14 00:00:00.0000, 1.765400842240814E+08, -2.533913991153875E+07, -9.216872368311912E+06,
2461120.500000000, A.D. 2026-Mar-21 00:00:00.0000, 1.849176200931570E+08, -1.026764792124037E+07, -9.230316074957393E+06,
2461127.500000000, A.D. 2026-Mar-28 00:00:00.0000, 1.918871635114412E+08, 4.884172762450038E+06, -9.173421286268191E+06,
2461134.500000000, A.D. 2026-Apr-04 00:00:00.0000, 1.975437634656571E+08, 2.000433114824103E+07, -9.053712323205255E+06,
2461141.500000000, A.D. 2026-Apr-11 00:00:00.0000, 2.019786624324896E+08, 3.500222401105076E+07, -8.877971895752668E+06,
2461148.500000000, A.D. 2026-Apr-18 00:00:00.0000, 2.052779960236639E+08, 4.980453682322156E+07, -8.652284845334200E+06,
2461155.500000000, A.D. 2026-Apr-25 00:00:00.0000, 2.075222144817843E+08, 6.435187614715964E+07, -8.382097824722553E+06,
2461162.500000000, A.D. 2026-May-02 00:00:00.0000, 2.087859547391214E+08, 7.859603817227809E+07, -8.072284251602642E+06,
2461169.500000000, A.D. 2026-May-09 00:00:00.0000, 2.091381830365005E+08, 9.249780921368286E+07, -7.727208533499200E+06,
2461176.500000000, A.D. 2026-May-16 00:00:00.0000, 2.086424912298591E+08, 1.060252010693737E+08, -7.350786437993530E+06,
2461183.500000000, A.D. 2026-May-23 00:00:00.0000, 2.073574719034294E+08, 1.191520379030520E+08, -6.946540096734352E+06,
2461190.500000000, A.D. 2026-May-30 00:00:00.0000, 2.053371233221506E+08, 1.318568247640224E+08, -6.517646980285987E+06,
2461197.500000000, A.D. 2026-Jun-06 00:00:00.0000, 2.026312554631996E+08, 1.441218374062668E+08, -6.066983187911347E+06,
2461204.500000000, A.D. 2026-Jun-13 00:00:00.0000, 1.992858842114335E+08, 1.559323878058959E+08, -5.597161764530241E+06,
2461211.500000000, A.D. 2026-Jun-20 00:00:00.0000, 1.953436041798080E+08, 1.672762318929434E+08, -5.110566271097116E+06,
2461218.500000000, A.D. 2026-Jun-27 00:00:00.0000, 1.908439342168850E+08, 1.781430903557670E+08, -4.609380024883002E+06,
2461225.500000000, A.D. 2026-Jul-04 00:00:00.0000, 1.858236343246836E+08, 1.885242589899811E+08, -4.095611603975996E+06,
2461232.500000000, A.D. 2026-Jul-11 00:00:00.0000, 1.803169947334723E+08, 1.984122904854580E+08, -3.571117142438307E+06,
2461239.500000000, A.D. 2026-Jul-18 00:00:00.0000, 1.743560987291001E+08, 2.078007334611193E+08, -3.037619865650907E+06,
2461246.500000000, A.D. 2026-Jul-25 00:00:00.0000, 1.679710612887606E+08, 2.166839174825037E+08, -2.496727259332433E+06,
2461253.500000000, A.D. 2026-Aug-01 00:00:00.0000, 1.611902458304940E+08, 2.250567750593391E+08, -1.949946222356126E+06,
2461260.500000000, A.D. 2026-Aug-08 00:00:00.0000, 1.540404615901099E+08, 2.329146934547492E+08, -1.398696522452876E+06,
2461267.500000000, A.D. 2026-Aug-15 00:00:00.0000, 1.465471442815152E+08, 2.402533910677299E+08, -8.443228131433427E+05,
2461274.500000000, A.D. 2026-Aug-22 00:00:00.0000, 1.387345214143612E+08, 2.470688150534521E+08, -2.881052663965970E+05,
2461281.500000000, A.D. 2026-Aug-29 00:00:00.0000, 1.306257619653078E+08, 2.533570551397617E+08, 2.687310839166641E+05,
2461288.500000000, A.D. 2026-Sep-05 00:00:00.0000, 1.222431143893261E+08, 2.591142678487996E+08, 8.250076920256317E+05,
2461295.500000000, A.D. 2026-Sep-12 00:00:00.0000, 1.136080371770012E+08, 2.643366112561793E+08, 1.379584374771938E+06,
$$EOE